{"type": "FeatureCollection", "features": [{"type": "Feature", "properties": {"norad_id": 2807, "name": "OPS 7218 (TRANSIT 16)", "group": "nnss", "lat": 11.53642491564437, "lon": 174.26312738436945, "alt_km": 1056.9689603725092, "timestamp": "2025-12-03T06:58:43.505970+00:00", "meta": {"OBJECT_NAME": "OPS 7218 (TRANSIT 16)", "OBJECT_ID": "1967-048A", "EPOCH": "2025-12-02T20:20:05.793792", "MEAN_MOTION": 13.50719263, "ECCENTRICITY": 0.002143, "INCLINATION": 89.6736, "RA_OF_ASC_NODE": 354.3444, "ARG_OF_PERICENTER": 140.7398, "MEAN_ANOMALY": 32.258, "EPHEMERIS_TYPE": 0, "CLASSIFICATION_TYPE": "U", "NORAD_CAT_ID": 2807, "ELEMENT_SET_NO": 999, "REV_AT_EPOCH": 88142, "BSTAR": 0.00020941, "MEAN_MOTION_DOT": 1.45e-06, "MEAN_MOTION_DDOT": 0}, "tle": {"line1": "1 02807U 67048A   25336.84728928  .00000145  00000+0  20941-3 0  9997", "line2": "2 02807  89.6736 354.3444 0021430 140.7398  32.2580 13.50719263881427"}}, "geometry": {"type": "Point", "coordinates": [174.26312738436945, 11.53642491564437]}}, {"type": "Feature", "properties": {"norad_id": 2965, "name": "OPS 4947 (TRANSIT 17)", "group": "nnss", "lat": 40.41400196807669, "lon": -155.48246528142482, "alt_km": 1075.1307024084363, "timestamp": "2025-12-03T06:58:43.505994+00:00", "meta": {"OBJECT_NAME": "OPS 4947 (TRANSIT 17)", "OBJECT_ID": "1967-092A", "EPOCH": "2025-12-02T16:41:48.008256", "MEAN_MOTION": 13.53449741, "ECCENTRICITY": 0.0045758, "INCLINATION": 89.2507, "RA_OF_ASC_NODE": 25.2012, "ARG_OF_PERICENTER": 264.7144, "MEAN_ANOMALY": 217.4402, "EPHEMERIS_TYPE": 0, "CLASSIFICATION_TYPE": "U", "NORAD_CAT_ID": 2965, "ELEMENT_SET_NO": 999, "REV_AT_EPOCH": 86961, "BSTAR": 0.0002202, "MEAN_MOTION_DOT": 1.6e-06, "MEAN_MOTION_DDOT": 0}, "tle": {"line1": "1 02965U 67092A   25336.69569454  .00000160  00000+0  22020-3 0  9998", "line2": "2 02965  89.2507  25.2012 0045758 264.7144 217.4402 13.53449741869615"}}, "geometry": {"type": "Point", "coordinates": [-155.48246528142482, 40.41400196807669]}}, {"type": "Feature", "properties": {"norad_id": 3133, "name": "OPS 7034 (TRANSIT 18)", "group": "nnss", "lat": -6.512051036711167, "lon": -86.38435737809733, "alt_km": 1120.1922577148998, "timestamp": "2025-12-03T06:58:43.506009+00:00", "meta": {"OBJECT_NAME": "OPS 7034 (TRANSIT 18)", "OBJECT_ID": "1968-012A", "EPOCH": "2025-12-02T20:38:59.970048", "MEAN_MOTION": 13.51562273, "ECCENTRICITY": 0.0072931, "INCLINATION": 90.0269, "RA_OF_ASC_NODE": 273.6114, "ARG_OF_PERICENTER": 197.8968, "MEAN_ANOMALY": 222.6307, "EPHEMERIS_TYPE": 0, "CLASSIFICATION_TYPE": "U", "NORAD_CAT_ID": 3133, "ELEMENT_SET_NO": 999, "REV_AT_EPOCH": 56785, "BSTAR": 0.00016115, "MEAN_MOTION_DOT": 1.16e-06, "MEAN_MOTION_DDOT": 0}, "tle": {"line1": "1 03133U 68012A   25336.86041632  .00000116  00000+0  16115-3 0  9990", "line2": "2 03133  90.0269 273.6114 0072931 197.8968 222.6307 13.51562273567850"}}, "geometry": {"type": "Point", "coordinates": [-86.38435737809733, -6.512051036711167]}}, {"type": "Feature", "properties": {"norad_id": 4507, "name": "NNSS 19 (TRANSIT 19)", "group": "nnss", "lat": -26.408888193556226, "lon": -125.4701269700619, "alt_km": 948.6572758321408, "timestamp": "2025-12-03T06:58:43.506022+00:00", "meta": {"OBJECT_NAME": "NNSS 19 (TRANSIT 19)", "OBJECT_ID": "1970-067A", "EPOCH": "2025-12-02T18:39:56.229696", "MEAN_MOTION": 13.51310894, "ECCENTRICITY": 0.0171235, "INCLINATION": 90.0056, "RA_OF_ASC_NODE": 234.5268, "ARG_OF_PERICENTER": 322.4428, "MEAN_ANOMALY": 36.486, "EPHEMERIS_TYPE": 0, "CLASSIFICATION_TYPE": "U", "NORAD_CAT_ID": 4507, "ELEMENT_SET_NO": 999, "REV_AT_EPOCH": 72087, "BSTAR": 0.00025499, "MEAN_MOTION_DOT": 1.89e-06, "MEAN_MOTION_DDOT": 0}, "tle": {"line1": "1 04507U 70067A   25336.77773414  .00000189  00000+0  25499-3 0  9994", "line2": "2 04507  90.0056 234.5268 0171235 322.4428  36.4860 13.51310894720878"}}, "geometry": {"type": "Point", "coordinates": [-125.4701269700619, -26.408888193556226]}}, {"type": "Feature", "properties": {"norad_id": 6909, "name": "NNSS 20 (TRANSIT 20)", "group": "nnss", "lat": 81.80633878780999, "lon": -103.80064425495279, "alt_km": 881.7838747513233, "timestamp": "2025-12-03T06:58:43.506033+00:00", "meta": {"OBJECT_NAME": "NNSS 20 (TRANSIT 20)", "OBJECT_ID": "1973-081A", "EPOCH": "2025-12-02T20:04:46.934976", "MEAN_MOTION": 13.71427347, "ECCENTRICITY": 0.0156458, "INCLINATION": 89.8556, "RA_OF_ASC_NODE": 255.2027, "ARG_OF_PERICENTER": 107.6448, "MEAN_ANOMALY": 254.1868, "EPHEMERIS_TYPE": 0, "CLASSIFICATION_TYPE": "U", "NORAD_CAT_ID": 6909, "ELEMENT_SET_NO": 999, "REV_AT_EPOCH": 80225, "BSTAR": 0.00026148, "MEAN_MOTION_DOT": 2.68e-06, "MEAN_MOTION_DDOT": 0}, "tle": {"line1": "1 06909U 73081A   25336.83665434  .00000268  00000+0  26148-3 0  9990", "line2": "2 06909  89.8556 255.2027 0156458 107.6448 254.1868 13.71427347802259"}}, "geometry": {"type": "Point", "coordinates": [-103.80064425495279, 81.80633878780999]}}, {"type": "Feature", "properties": {"norad_id": 10457, "name": "TRANSAT", "group": "nnss", "lat": 58.610692813606505, "lon": 79.50839699506159, "alt_km": 1087.6006420629164, "timestamp": "2025-12-03T06:58:43.506045+00:00", "meta": {"OBJECT_NAME": "TRANSAT", "OBJECT_ID": "1977-106A", "EPOCH": "2025-12-02T20:34:25.027104", "MEAN_MOTION": 13.48941071, "ECCENTRICITY": 0.0024509, "INCLINATION": 89.6482, "RA_OF_ASC_NODE": 78.9468, "ARG_OF_PERICENTER": 218.6876, "MEAN_ANOMALY": 255.9454, "EPHEMERIS_TYPE": 0, "CLASSIFICATION_TYPE": "U", "NORAD_CAT_ID": 10457, "ELEMENT_SET_NO": 999, "REV_AT_EPOCH": 36610, "BSTAR": 0.00012256, "MEAN_MOTION_DOT": 8.7e-07, "MEAN_MOTION_DDOT": 0}, "tle": {"line1": "1 10457U 77106A   25336.85723411  .00000087  00000+0  12256-3 0  9991", "line2": "2 10457  89.6482  78.9468 0024509 218.6876 255.9454 13.48941071366104"}}, "geometry": {"type": "Point", "coordinates": [79.50839699506159, 58.610692813606505]}}, {"type": "Feature", "properties": {"norad_id": 12458, "name": "NOVA 1", "group": "nnss", "lat": 67.87751594397444, "lon": -88.84511920616316, "alt_km": 1154.3454021063835, "timestamp": "2025-12-03T06:58:43.506056+00:00", "meta": {"OBJECT_NAME": "NOVA 1", "OBJECT_ID": "1981-044A", "EPOCH": "2025-12-02T20:07:51.927744", "MEAN_MOTION": 13.23276762, "ECCENTRICITY": 0.0015588, "INCLINATION": 89.8522, "RA_OF_ASC_NODE": 91.5251, "ARG_OF_PERICENTER": 128.3764, "MEAN_ANOMALY": 351.8313, "EPHEMERIS_TYPE": 0, "CLASSIFICATION_TYPE": "U", "NORAD_CAT_ID": 12458, "ELEMENT_SET_NO": 999, "REV_AT_EPOCH": 15055, "BSTAR": 0.00014528, "MEAN_MOTION_DOT": 7.1e-07, "MEAN_MOTION_DDOT": 0}, "tle": {"line1": "1 12458U 81044A   25336.83879546  .00000071  00000+0  14528-3 0  9996", "line2": "2 12458  89.8522  91.5251 0015588 128.3764 351.8313 13.23276762150556"}}, "geometry": {"type": "Point", "coordinates": [-88.84511920616316, 67.87751594397444]}}, {"type": "Feature", "properties": {"norad_id": 15362, "name": "NOVA 3", "group": "nnss", "lat": -7.386285888380757, "lon": 80.43920958267265, "alt_km": 1153.432230520466, "timestamp": "2025-12-03T06:58:43.506067+00:00", "meta": {"OBJECT_NAME": "NOVA 3", "OBJECT_ID": "1984-110A", "EPOCH": "2025-12-02T20:45:05.345280", "MEAN_MOTION": 13.2304265, "ECCENTRICITY": 0.0031294, "INCLINATION": 90.1225, "RA_OF_ASC_NODE": 80.4183, "ARG_OF_PERICENTER": 359.6853, "MEAN_ANOMALY": 124.5872, "EPHEMERIS_TYPE": 0, "CLASSIFICATION_TYPE": "U", "NORAD_CAT_ID": 15362, "ELEMENT_SET_NO": 999, "REV_AT_EPOCH": 98568, "BSTAR": 9.685e-05, "MEAN_MOTION_DOT": 4.9e-07, "MEAN_MOTION_DDOT": 0}, "tle": {"line1": "1 15362U 84110A   25336.86464520  .00000049  00000+0  96850-4 0  9999", "line2": "2 15362  90.1225  80.4183 0031294 359.6853 124.5872 13.23042650985681"}}, "geometry": {"type": "Point", "coordinates": [80.43920958267265, -7.386285888380757]}}, {"type": "Feature", "properties": {"norad_id": 15935, "name": "OSCAR 30", "group": "nnss", "lat": -10.979280145756661, "lon": 99.72459578449511, "alt_km": 1192.2772094787479, "timestamp": "2025-12-03T06:58:43.506078+00:00", "meta": {"OBJECT_NAME": "OSCAR 30", "OBJECT_ID": "1985-066A", "EPOCH": "2025-12-02T19:03:55.225152", "MEAN_MOTION": 13.36075692, "ECCENTRICITY": 0.0169319, "INCLINATION": 90.1646, "RA_OF_ASC_NODE": 99.6846, "ARG_OF_PERICENTER": 111.6641, "MEAN_ANOMALY": 12.9605, "EPHEMERIS_TYPE": 0, "CLASSIFICATION_TYPE": "U", "NORAD_CAT_ID": 15935, "ELEMENT_SET_NO": 999, "REV_AT_EPOCH": 96320, "BSTAR": 0.0002053, "MEAN_MOTION_DOT": 1.24e-06, "MEAN_MOTION_DDOT": 0}, "tle": {"line1": "1 15935U 85066A   25336.79438918  .00000124  00000+0  20530-3 0  9995", "line2": "2 15935  90.1646  99.6846 0169319 111.6641  12.9605 13.36075692963207"}}, "geometry": {"type": "Point", "coordinates": [99.72459578449511, -10.979280145756661]}}, {"type": "Feature", "properties": {"norad_id": 15936, "name": "OSCAR 24", "group": "nnss", "lat": 69.52867657721349, "lon": 91.65953600409877, "alt_km": 1029.702382010766, "timestamp": "2025-12-03T06:58:43.506089+00:00", "meta": {"OBJECT_NAME": "OSCAR 24", "OBJECT_ID": "1985-066B", "EPOCH": "2025-12-02T20:24:33.086016", "MEAN_MOTION": 13.35933406, "ECCENTRICITY": 0.0170358, "INCLINATION": 90.1786, "RA_OF_ASC_NODE": 92.1305, "ARG_OF_PERICENTER": 117.9472, "MEAN_ANOMALY": 356.2457, "EPHEMERIS_TYPE": 0, "CLASSIFICATION_TYPE": "U", "NORAD_CAT_ID": 15936, "ELEMENT_SET_NO": 999, "REV_AT_EPOCH": 96511, "BSTAR": 0.00014601, "MEAN_MOTION_DOT": 9.1e-07, "MEAN_MOTION_DDOT": 0}, "tle": {"line1": "1 15936U 85066B   25336.85038294  .00000091  00000+0  14601-3 0  9991", "line2": "2 15936  90.1786  92.1305 0170358 117.9472 356.2457 13.35933406965113"}}, "geometry": {"type": "Point", "coordinates": [91.65953600409877, 69.52867657721349]}}]}